#dP2023  4 15  0  0  0.00000000      96 __u+U ITR00 FIT  IAC
## 2257 518400.00000000   900.00000000 60049 0.0000000000000
+  119   C06C07C08C09C10C11C12C13C14C16C19C20C21C22C23C24C25
+        C26C27C28C29C30C32C33C34C35C36C37C38C39C40C41C42C43
+        C44C45C46E01E02E03E04E05E07E08E09E10E11E12E13E14E15
+        E18E19E21E24E25E26E27E30E31E33E34E36G01G02G03G04G05
+        G06G07G08G09G10G11G12G13G14G15G16G17G18G19G20G21G22
+        G23G24G25G26G27G28G30G31G32J02J03J04R01R02R03R04R05
+        R07R08R09R11R12R13R14R15R16R17R18R19R20R21R22R24R25
++        10  8  8  9  7  7  6  9  8  9  8  8  7  7  7  5  6
++         6  8  8  7  8  7  7  5  7  7  8  9 10 10  7  8  7
++         6  6  8  7  7  6  7  5  6  6  6  6  6  7  5  6  5
++         6  7  5  7  6  7  6  6  7  7  6  6  6  5  6  6  7
++         9  6  7  7  6  8  6  6  6  6  7  6  5  6  7  6  5
++         6  6  7  7  6  7  5  6  5  7  6  8  7  7  6  6  7
++         7  7  5  7  6  5  6  7  6  6  7  6  7  6  6  6  6
%c M  cc GPS ccc cccc cccc cccc cccc ccccc ccccc ccccc ccccc
%c cc cc ccc ccc cccc cccc cccc cccc ccccc ccccc ccccc ccccc
%f  0.0000000  0.000000000  0.00000000000  0.000000000000000
%f  0.0000000  0.000000000  0.00000000000  0.000000000000000
%i    0    0    0    0      0      0      0      0         0
%i    0    0    0    0      0      0      0      0         0
/* INFORMATION & ANALYSIS CENTER (IAC)      ULTRA-RAPID DATA
/* S/V CLOCKS ARE ALIGNED TO GNSS TIME                      
/* G:C1WC2W R:C1PC2P E:C1XC5X C:C2IC6I J:C1CC2S             
/* PCV:IGS20_2247 OL/AL:FES2004  NONE     YN ORB:CoN CLK:CoN
*  2023 04 15 22 45  0.00000000
PC06 -15708.982959  25172.104140  29892.033900   -196.996681
PC07 -11649.650971  40389.556406   4389.331074    122.722175
PC08    884.722783  27054.202600 -32267.011554    504.222818
PC09  -4918.259941  25174.800619  33805.966852    762.840783
PC10  -5778.973269  41963.366795  -2455.295759    -34.217030
PC11 -22251.409353  14627.271765  -8311.113363    302.547021
PC12 -25983.355113   3791.238853   9482.149339    574.306930
PC13   6838.198208  30680.425046 -27818.859200    253.643252
PC14 -12266.831344  20542.178739 -14390.844523    128.549963
PC16 -18853.603057  24479.636451  28786.998759    108.157214
PC19   7216.615689 -26241.391098   6138.450486   -901.481058
PC20  14945.300724 -13123.603730  19578.642780    623.409964
PC21 -14236.972846  -8972.622197 -22233.661802   -910.161414
PC22  -5065.919930 -24860.986984 -11579.396488   -534.020402
PC23  13080.656960  21145.618268  12669.230891   -906.633581
PC24 -20868.745516   1063.041808  18492.935249   -166.818813
PC25  -4125.251196  16526.445791  22090.946627    107.478533
PC26 -24315.601221 -12727.159105   5133.928655   -106.820259
PC27  22641.144660   2691.413392 -16123.898964    126.186073
PC28   7548.188833  14086.031089 -22876.823450     92.944094
PC29  13274.493077 -18540.787538  16081.081984    107.656103
PC30  25559.065676 -11205.435509   -850.206677      0.377595
PC32  14313.754680   8976.571729  22234.348833   -578.354629
PC33  -7079.118285  26290.404319  -6161.079031   -873.860430
PC34 -25188.328042  11972.727745   -445.492861    149.790267
PC35  -7094.227293 -14350.046132  22844.269968    645.363473
PC36   5211.447792 -16022.316477 -22226.364866   -498.730593
PC37  23737.551553  14106.803805  -3947.146402   -789.658882
PC38  -7866.030823  23379.947466 -34137.540227     72.026067
PC39 -23823.735063  24568.224671  24535.791656     -2.564634
PC40 -17206.924943  38027.985777   6778.211159    -20.460841
PC41   4818.145718  25190.447441  11071.214363   -855.515707
PC42 -15214.205538  11835.613521 -20139.559912   -735.295140
PC43 -14023.019008  18505.997298 -15474.367586     16.882177
PC44 -22626.963872  -2084.552876  16160.209260     77.139076
PC45 -13504.086373 -21085.175658 -12345.424043    -85.549534
PC46  19850.850538  -2446.002967 -19449.571401    -47.265876
PE01   3152.440174 -23973.516581 -17082.125960     -0.168066
PE02  -2798.955926  24235.059259  16742.742154     32.572692
PE03 -12898.046029  25437.824771   7948.930846   -669.593175
PE04  -3721.265401 -19853.724131 -21623.654658   -101.429022
PE05 -22337.066073  16166.396131 -10758.158321    -76.418394
PE07  18469.817839   2655.820982  22987.551131    -37.892606
PE08   3441.654149  19938.290467  21616.570824    -67.986643
PE09 -18280.723026  -2689.545006 -23118.713252   -906.141975
PE10 -22598.876882 -12509.373148  14443.864769   -526.764558
PE11 -28333.624056  -7110.027543   4692.888548   1618.921528
PE12 -13803.488538 -15668.447105  20963.649636   -500.250847
PE13  28097.443445   7532.836826  -5516.541716    -18.568814
PE14 -18499.964574  -2554.297981  17946.628451    198.227353
PE15  13514.513983  15647.574653 -21185.397255    -14.866200
PE18  14102.972496  13802.182644 -23550.648133   -161.179843
PE19  14914.520293 -24971.353011  -5486.073954  -2756.811895
PE21  14734.752279  -8144.759476 -24351.811956   -523.602477
PE24 -18791.616254 -14411.318700  17753.576907    -46.375691
PE25 -14894.516277   7773.144518  24369.006766   -603.348636
PE26  25627.699226  -5427.696824  13789.187151     76.363536
PE27  18888.567588  13564.713882 -18310.613036    -26.050195
PE30  11438.342473  27274.995728   -993.974348    -96.057893
PE31 -11878.509946 -27071.035838   1546.642487   -521.399681
PE33   8959.239374 -14459.217663  24227.657112   -446.249954
PE34  -8740.835691  14532.732363 -24268.032854    -40.422566
PE36 -26035.212878   4894.415443 -13189.684000    -41.937232
PG01  17362.677418  13843.313487 -15165.084292    192.988135
PG02 -25296.254518  -6383.662345   5162.411171   -605.659853
PG03  12909.450540  22006.336335   7477.785057   -328.245418
PG04   9521.652979  11972.061877  21718.632705     17.768593
PG05  -3991.071507 -24915.951806   7920.995632   -123.547097
PG06  20446.246582  -6452.829462  15804.181452    586.929186
PG07  25744.237419   7149.211955   2873.896226    200.506444
PG08   -871.503856  20077.117501 -17230.893291   -117.928021
PG09  17287.827485   1369.195156  20057.980921   -179.235086
PG10 -13735.636774   5412.535666 -21895.562353    -32.984942
PG11   6755.677404 -13784.673940  21680.650604   -163.787133
PG12 -10118.567924 -24006.739464   5126.384248   -364.385605
PG13   9663.061708 -20733.795816 -13498.353248    506.293410
PG14  15433.034834  -2239.471788 -21500.520471     26.288262
PG15  -2354.516728 -20166.759285 -17442.873589     30.962730
PG16  -1201.795006  24157.380526  10120.457959   -508.552465
PG17  21344.265371 -11461.378229 -10577.899383    710.736816
PG18 -26205.515127  -4582.170731  -1444.347028   -225.806571
PG19  20395.674548 -16604.157908  -2540.110542    304.156590
PG20   1991.429656 -20926.676809  16388.044903    438.835249
PG21  10212.630947  14658.711057 -19356.558981    154.205238
PG22 -18238.480506  19156.901803   1414.495879    464.791667
PG23 -16814.079308  -7589.584404 -19158.054399     17.110943
PG24 -13939.569426 -14659.169464 -17770.219903   -153.175952
PG25 -16044.003073 -16137.620697  13602.553609    435.877108
PG26  -8711.750371  15872.559747  19205.395968    241.711715
PG27 -10899.901688  22276.796885  -9148.970833     58.104176
PG28 -21637.773686   6443.479687  13959.475355     65.504199
PG30  25079.654736  -1580.590053  -8893.187966   -522.185786
PG31 -15774.278197  10181.523946  18789.952728   -214.052391
PG32 -20344.796796  14337.513922  -8806.614478   -452.464194
PJ02 -25719.385565  24710.660855  27457.235491     -1.537674
PJ03 -34561.402425  17782.463750 -11692.727154      2.372054
PJ04 -21027.331159  31172.574181 -13942.275698     94.197909
PR01  -6176.890642  24713.190486   1498.946418     26.739583
PR02   3272.098538  17720.571738  18074.809452    -22.944106
PR03  11132.535790    776.881358  22992.511370     76.089354
PR04  12561.700926 -16167.259204  15256.419420    183.460955
PR05   7388.232730 -24413.286918   -803.192659    111.015460
PR07 -11291.756775     11.526177 -22822.707715     53.895111
PR08 -12470.560865  16406.398556 -14949.053484    -70.367047
PR09 -16078.699402 -19313.527221  -4113.151541    114.925313
PR11 -12067.142916   2692.998553  22316.443831    -36.738375
PR12   3144.029034  16663.738139  19070.335949     26.475810
PR13  15014.957073  19732.190908   5967.890430    -34.019950
PR14  19097.195237  11063.673797 -12796.985649     24.554068
PR15  11385.577272  -3673.703191 -22513.079345     89.780082
PR16  -3081.797410 -16372.148657 -19297.908405     13.558773
PR17  23481.870961   -607.612686  -9901.933239    621.540194
PR18  23265.686697  -8058.355718   6789.171558     76.721445
PR19  12639.178853 -10993.183084  19234.341033   -229.191563
PR20  -9516.910937  -8272.032082  22168.047914    -91.196735
PR21 -24077.102721   1340.594211   8340.356293     -0.283175
PR22 -23095.972246   7689.067500  -7568.936943     79.499127
PR24  10563.095956   8140.914894 -21730.045953    162.246007
PR25 -23451.316356   -718.121908  10030.071430     61.839031
EOF
